ORBCOMM FM33            
1 25983U 99065D   24120.86557163  .00001280  00000+0  46932-3 0  9993
2 25983  45.0267 160.3957 0007399 155.7859  13.6025 14.37628166276536
ORBCOMM FM36            
1 25984U 99065E   24120.64799308  .00001768  00000+0  65737-3 0  9994
2 25984  45.0383 246.7417 0002101   3.6006 356.4857 14.35519416274946
ORBCOMM FM35            
1 25985U 99065F   24120.61711090  .00001736  00000+0  65186-3 0  9997
2 25985  45.0388 249.4999 0003388 152.2448 207.8581 14.35100440275527
ORBCOMM FM34            
1 25986U 99065G   24120.79613922  .00001428  00000+0  54533-3 0  9994
2 25986  45.0382 249.1886 0002481  87.7302 272.3830 14.35068253275471
ORBCOMM FM38            
1 33060U 08031A   24120.40769150  .00002551  00000+0  38315-3 0  9990
2 33060  48.4392 121.3634 0005131  60.5166 299.6259 14.77444921853481
ORBCOMM FM41            
1 33061U 08031B   24120.93998499  .00002031  00000+0  31295-3 0  9992
2 33061  48.4426 125.4377 0004410  46.1985  34.8352 14.77173763853067
ORBCOMM FM29            
1 33062U 08031C   24120.80947318  .00002335  00000+0  35601-3 0  9995
2 33062  48.4378 134.0911 0006232  46.0934 124.6592 14.77104007852957
ORBCOMM FM39            
1 33063U 08031D   24120.46484802  .00001897  00000+0  30141-3 0  9998
2 33063  48.4387 156.1565 0007391  19.8505 340.2695 14.76121207852609
