<?xml version="1.0" encoding="UTF-8"?>
<ndm xmlns:xsi="http://www.w3.org/2001/XMLSchema-instance" xsi:noNamespaceSchemaLocation="https://sanaregistry.org/r/ndmxml_unqualified/ndmxml-2.0.0-master-2.0.xsd">
<omm id="CCSDS_OMM_VERS" version="2.0">
<header><CREATION_DATE/><ORIGINATOR/></header><body><segment><metadata><OBJECT_NAME>ORBCOMM FM33</OBJECT_NAME><OBJECT_ID>1999-065D</OBJECT_ID><CENTER_NAME>EARTH</CENTER_NAME><REF_FRAME>TEME</REF_FRAME><TIME_SYSTEM>UTC</TIME_SYSTEM><MEAN_ELEMENT_THEORY>SGP4</MEAN_ELEMENT_THEORY></metadata><data><meanElements><EPOCH>2024-04-29T20:46:25.388832</EPOCH><MEAN_MOTION>14.37628166</MEAN_MOTION><ECCENTRICITY>.0007399</ECCENTRICITY><INCLINATION>45.0267</INCLINATION><RA_OF_ASC_NODE>160.3957</RA_OF_ASC_NODE><ARG_OF_PERICENTER>155.7859</ARG_OF_PERICENTER><MEAN_ANOMALY>13.6025</MEAN_ANOMALY></meanElements><tleParameters><EPHEMERIS_TYPE>0</EPHEMERIS_TYPE><CLASSIFICATION_TYPE>U</CLASSIFICATION_TYPE><NORAD_CAT_ID>25983</NORAD_CAT_ID><ELEMENT_SET_NO>999</ELEMENT_SET_NO><REV_AT_EPOCH>27653</REV_AT_EPOCH><BSTAR>.46932E-3</BSTAR><MEAN_MOTION_DOT>.128E-4</MEAN_MOTION_DOT><MEAN_MOTION_DDOT>0</MEAN_MOTION_DDOT></tleParameters></data></segment></body></omm>
<omm id="CCSDS_OMM_VERS" version="2.0">
<header><CREATION_DATE/><ORIGINATOR/></header><body><segment><metadata><OBJECT_NAME>ORBCOMM FM36</OBJECT_NAME><OBJECT_ID>1999-065E</OBJECT_ID><CENTER_NAME>EARTH</CENTER_NAME><REF_FRAME>TEME</REF_FRAME><TIME_SYSTEM>UTC</TIME_SYSTEM><MEAN_ELEMENT_THEORY>SGP4</MEAN_ELEMENT_THEORY></metadata><data><meanElements><EPOCH>2024-04-29T15:33:06.602112</EPOCH><MEAN_MOTION>14.35519416</MEAN_MOTION><ECCENTRICITY>.0002101</ECCENTRICITY><INCLINATION>45.0383</INCLINATION><RA_OF_ASC_NODE>246.7417</RA_OF_ASC_NODE><ARG_OF_PERICENTER>3.6006</ARG_OF_PERICENTER><MEAN_ANOMALY>356.4857</MEAN_ANOMALY></meanElements><tleParameters><EPHEMERIS_TYPE>0</EPHEMERIS_TYPE><CLASSIFICATION_TYPE>U</CLASSIFICATION_TYPE><NORAD_CAT_ID>25984</NORAD_CAT_ID><ELEMENT_SET_NO>999</ELEMENT_SET_NO><REV_AT_EPOCH>27494</REV_AT_EPOCH><BSTAR>.65737E-3</BSTAR><MEAN_MOTION_DOT>.1768E-4</MEAN_MOTION_DOT><MEAN_MOTION_DDOT>0</MEAN_MOTION_DDOT></tleParameters></data></segment></body></omm>
<omm id="CCSDS_OMM_VERS" version="2.0">
<header><CREATION_DATE/><ORIGINATOR/></header><body><segment><metadata><OBJECT_NAME>ORBCOMM FM35</OBJECT_NAME><OBJECT_ID>1999-065F</OBJECT_ID><CENTER_NAME>EARTH</CENTER_NAME><REF_FRAME>TEME</REF_FRAME><TIME_SYSTEM>UTC</TIME_SYSTEM><MEAN_ELEMENT_THEORY>SGP4</MEAN_ELEMENT_THEORY></metadata><data><meanElements><EPOCH>2024-04-29T14:48:38.381760</EPOCH><MEAN_MOTION>14.35100440</MEAN_MOTION><ECCENTRICITY>.0003388</ECCENTRICITY><INCLINATION>45.0388</INCLINATION><RA_OF_ASC_NODE>249.4999</RA_OF_ASC_NODE><ARG_OF_PERICENTER>152.2448</ARG_OF_PERICENTER><MEAN_ANOMALY>207.8581</MEAN_ANOMALY></meanElements><tleParameters><EPHEMERIS_TYPE>0</EPHEMERIS_TYPE><CLASSIFICATION_TYPE>U</CLASSIFICATION_TYPE><NORAD_CAT_ID>25985</NORAD_CAT_ID><ELEMENT_SET_NO>999</ELEMENT_SET_NO><REV_AT_EPOCH>27552</REV_AT_EPOCH><BSTAR>.65186E-3</BSTAR><MEAN_MOTION_DOT>.1736E-4</MEAN_MOTION_DOT><MEAN_MOTION_DDOT>0</MEAN_MOTION_DDOT></tleParameters></data></segment></body></omm>
<omm id="CCSDS_OMM_VERS" version="2.0">
<header><CREATION_DATE/><ORIGINATOR/></header><body><segment><metadata><OBJECT_NAME>ORBCOMM FM34</OBJECT_NAME><OBJECT_ID>1999-065G</OBJECT_ID><CENTER_NAME>EARTH</CENTER_NAME><REF_FRAME>TEME</REF_FRAME><TIME_SYSTEM>UTC</TIME_SYSTEM><MEAN_ELEMENT_THEORY>SGP4</MEAN_ELEMENT_THEORY></metadata><data><meanElements><EPOCH>2024-04-29T19:06:26.428608</EPOCH><MEAN_MOTION>14.35068253</MEAN_MOTION><ECCENTRICITY>.0002481</ECCENTRICITY><INCLINATION>45.0382</INCLINATION><RA_OF_ASC_NODE>249.1886</RA_OF_ASC_NODE><ARG_OF_PERICENTER>87.7302</ARG_OF_PERICENTER><MEAN_ANOMALY>272.3830</MEAN_ANOMALY></meanElements><tleParameters><EPHEMERIS_TYPE>0</EPHEMERIS_TYPE><CLASSIFICATION_TYPE>U</CLASSIFICATION_TYPE><NORAD_CAT_ID>25986</NORAD_CAT_ID><ELEMENT_SET_NO>999</ELEMENT_SET_NO><REV_AT_EPOCH>27547</REV_AT_EPOCH><BSTAR>.54533E-3</BSTAR><MEAN_MOTION_DOT>.1428E-4</MEAN_MOTION_DOT><MEAN_MOTION_DDOT>0</MEAN_MOTION_DDOT></tleParameters></data></segment></body></omm>
<omm id="CCSDS_OMM_VERS" version="2.0">
<header><CREATION_DATE/><ORIGINATOR/></header><body><segment><metadata><OBJECT_NAME>ORBCOMM FM38</OBJECT_NAME><OBJECT_ID>2008-031A</OBJECT_ID><CENTER_NAME>EARTH</CENTER_NAME><REF_FRAME>TEME</REF_FRAME><TIME_SYSTEM>UTC</TIME_SYSTEM><MEAN_ELEMENT_THEORY>SGP4</MEAN_ELEMENT_THEORY></metadata><data><meanElements><EPOCH>2024-04-29T09:47:04.545600</EPOCH><MEAN_MOTION>14.77444921</MEAN_MOTION><ECCENTRICITY>.0005131</ECCENTRICITY><INCLINATION>48.4392</INCLINATION><RA_OF_ASC_NODE>121.3634</RA_OF_ASC_NODE><ARG_OF_PERICENTER>60.5166</ARG_OF_PERICENTER><MEAN_ANOMALY>299.6259</MEAN_ANOMALY></meanElements><tleParameters><EPHEMERIS_TYPE>0</EPHEMERIS_TYPE><CLASSIFICATION_TYPE>U</CLASSIFICATION_TYPE><NORAD_CAT_ID>33060</NORAD_CAT_ID><ELEMENT_SET_NO>999</ELEMENT_SET_NO><REV_AT_EPOCH>85348</REV_AT_EPOCH><BSTAR>.38315E-3</BSTAR><MEAN_MOTION_DOT>.2551E-4</MEAN_MOTION_DOT><MEAN_MOTION_DDOT>0</MEAN_MOTION_DDOT></tleParameters></data></segment></body></omm>
<omm id="CCSDS_OMM_VERS" version="2.0">
<header><CREATION_DATE/><ORIGINATOR/></header><body><segment><metadata><OBJECT_NAME>ORBCOMM FM41</OBJECT_NAME><OBJECT_ID>2008-031B</OBJECT_ID><CENTER_NAME>EARTH</CENTER_NAME><REF_FRAME>TEME</REF_FRAME><TIME_SYSTEM>UTC</TIME_SYSTEM><MEAN_ELEMENT_THEORY>SGP4</MEAN_ELEMENT_THEORY></metadata><data><meanElements><EPOCH>2024-04-29T22:33:34.703136</EPOCH><MEAN_MOTION>14.77173763</MEAN_MOTION><ECCENTRICITY>.000441</ECCENTRICITY><INCLINATION>48.4426</INCLINATION><RA_OF_ASC_NODE>125.4377</RA_OF_ASC_NODE><ARG_OF_PERICENTER>46.1985</ARG_OF_PERICENTER><MEAN_ANOMALY>34.8352</MEAN_ANOMALY></meanElements><tleParameters><EPHEMERIS_TYPE>0</EPHEMERIS_TYPE><CLASSIFICATION_TYPE>U</CLASSIFICATION_TYPE><NORAD_CAT_ID>33061</NORAD_CAT_ID><ELEMENT_SET_NO>999</ELEMENT_SET_NO><REV_AT_EPOCH>85306</REV_AT_EPOCH><BSTAR>.31295E-3</BSTAR><MEAN_MOTION_DOT>.2031E-4</MEAN_MOTION_DOT><MEAN_MOTION_DDOT>0</MEAN_MOTION_DDOT></tleParameters></data></segment></body></omm>
<omm id="CCSDS_OMM_VERS" version="2.0">
<header><CREATION_DATE/><ORIGINATOR/></header><body><segment><metadata><OBJECT_NAME>ORBCOMM FM29</OBJECT_NAME><OBJECT_ID>2008-031C</OBJECT_ID><CENTER_NAME>EARTH</CENTER_NAME><REF_FRAME>TEME</REF_FRAME><TIME_SYSTEM>UTC</TIME_SYSTEM><MEAN_ELEMENT_THEORY>SGP4</MEAN_ELEMENT_THEORY></metadata><data><meanElements><EPOCH>2024-04-29T19:25:38.482752</EPOCH><MEAN_MOTION>14.77104007</MEAN_MOTION><ECCENTRICITY>.0006232</ECCENTRICITY><INCLINATION>48.4378</INCLINATION><RA_OF_ASC_NODE>134.0911</RA_OF_ASC_NODE><ARG_OF_PERICENTER>46.0934</ARG_OF_PERICENTER><MEAN_ANOMALY>124.6592</MEAN_ANOMALY></meanElements><tleParameters><EPHEMERIS_TYPE>0</EPHEMERIS_TYPE><CLASSIFICATION_TYPE>U</CLASSIFICATION_TYPE><NORAD_CAT_ID>33062</NORAD_CAT_ID><ELEMENT_SET_NO>999</ELEMENT_SET_NO><REV_AT_EPOCH>85295</REV_AT_EPOCH><BSTAR>.35601E-3</BSTAR><MEAN_MOTION_DOT>.2335E-4</MEAN_MOTION_DOT><MEAN_MOTION_DDOT>0</MEAN_MOTION_DDOT></tleParameters></data></segment></body></omm>
<omm id="CCSDS_OMM_VERS" version="2.0">
<header><CREATION_DATE/><ORIGINATOR/></header><body><segment><metadata><OBJECT_NAME>ORBCOMM FM39</OBJECT_NAME><OBJECT_ID>2008-031D</OBJECT_ID><CENTER_NAME>EARTH</CENTER_NAME><REF_FRAME>TEME</REF_FRAME><TIME_SYSTEM>UTC</TIME_SYSTEM><MEAN_ELEMENT_THEORY>SGP4</MEAN_ELEMENT_THEORY></metadata><data><meanElements><EPOCH>2024-04-29T11:09:22.868928</EPOCH><MEAN_MOTION>14.76121207</MEAN_MOTION><ECCENTRICITY>.0007391</ECCENTRICITY><INCLINATION>48.4387</INCLINATION><RA_OF_ASC_NODE>156.1565</RA_OF_ASC_NODE><ARG_OF_PERICENTER>19.8505</ARG_OF_PERICENTER><MEAN_ANOMALY>340.2695</MEAN_ANOMALY></meanElements><tleParameters><EPHEMERIS_TYPE>0</EPHEMERIS_TYPE><CLASSIFICATION_TYPE>U</CLASSIFICATION_TYPE><NORAD_CAT_ID>33063</NORAD_CAT_ID><ELEMENT_SET_NO>999</ELEMENT_SET_NO><REV_AT_EPOCH>85260</REV_AT_EPOCH><BSTAR>.30141E-3</BSTAR><MEAN_MOTION_DOT>.1897E-4</MEAN_MOTION_DOT><MEAN_MOTION_DDOT>0</MEAN_MOTION_DDOT></tleParameters></data></segment></body></omm>

</ndm>
